{"type": "FeatureCollection", "features": [ {"type": "Feature", "properties": {"norad_id": 44622, "name": "GAOFEN-10R", "group": "resource", "lat": 67.2739956425475, "lon": 131.9790520599485, "alt_km": 611.5542337695806, "timestamp": "2025-12-10T18:56:59.719676+00:00", "meta": {"OBJECT_NAME": "GAOFEN-10R", "OBJECT_ID": "2019-066A", "EPOCH": "2025-12-10T11:58:19.954848", "MEAN_MOTION": 14.82779979, "ECCENTRICITY": 0.000798, "INCLINATION": 98.0276, "RA_OF_ASC_NODE": 291.9963, "ARG_OF_PERICENTER": 48.2282, "MEAN_ANOMALY": 311.9611, "EPHEMERIS_TYPE": 0, "CLASSIFICATION_TYPE": "U", "NORAD_CAT_ID": 44622, "ELEMENT_SET_NO": 999, "REV_AT_EPOCH": 33441, "BSTAR": 0.00033745, "MEAN_MOTION_DOT": 2.675e-05, "MEAN_MOTION_DDOT": 0}, "tle": {"line1": "1 44622U 19066A   25344.49884207  .00002675  00000+0  33745-3 0  9994", "line2": "2 44622  98.0276 291.9963 0007980  48.2282 311.9611 14.82779979334411"}}, "geometry": {"type": "Point", "coordinates": [131.9790520599485, 67.2739956425475]}}, {"type": "Feature", "properties": {"norad_id": 44804, "name": "CARTOSAT-3", "group": "resource", "lat": 18.67117153891349, "lon": 41.86100085011001, "alt_km": 505.49495276755715, "timestamp": "2025-12-10T18:56:59.719687+00:00", "meta": {"OBJECT_NAME": "CARTOSAT-3", "OBJECT_ID": "2019-081A", "EPOCH": "2025-12-10T12:32:41.037216", "MEAN_MOTION": 15.19340059, "ECCENTRICITY": 0.0013965, "INCLINATION": 97.458, "RA_OF_ASC_NODE": 44.1346, "ARG_OF_PERICENTER": 93.6903, "MEAN_ANOMALY": 266.5929, "EPHEMERIS_TYPE": 0, "CLASSIFICATION_TYPE": "U", "NORAD_CAT_ID": 44804, "ELEMENT_SET_NO": 999, "REV_AT_EPOCH": 33482, "BSTAR": 0.00031446, "MEAN_MOTION_DOT": 6.594e-05, "MEAN_MOTION_DDOT": 0}, "tle": {"line1": "1 44804U 19081A   25344.52269719  .00006594  00000+0  31446-3 0  9992", "line2": "2 44804  97.4580  44.1346 0013965  93.6903 266.5929 15.19340059334827"}}, "geometry": {"type": "Point", "coordinates": [41.86100085011001, 18.67117153891349]}}, {"type": "Feature", "properties": {"norad_id": 44819, "name": "GAOFEN-12 01", "group": "resource", "lat": 32.77983056080322, "lon": -13.950710653378854, "alt_km": 626.0178401822295, "timestamp": "2025-12-10T18:56:59.719698+00:00", "meta": {"OBJECT_NAME": "GAOFEN-12 01", "OBJECT_ID": "2019-082A", "EPOCH": "2025-12-10T12:18:47.463840", "MEAN_MOTION": 14.80653316, "ECCENTRICITY": 0.0001214, "INCLINATION": 97.8127, "RA_OF_ASC_NODE": 350.8525, "ARG_OF_PERICENTER": 248.519, "MEAN_ANOMALY": 111.5893, "EPHEMERIS_TYPE": 0, "CLASSIFICATION_TYPE": "U", "NORAD_CAT_ID": 44819, "ELEMENT_SET_NO": 999, "REV_AT_EPOCH": 32617, "BSTAR": 0.00011606, "MEAN_MOTION_DOT": 8.41e-06, "MEAN_MOTION_DDOT": 0}, "tle": {"line1": "1 44819U 19082A   25344.51304935  .00000841  00000+0  11606-3 0  9993", "line2": "2 44819  97.8127 350.8525 0001214 248.5190 111.5893 14.80653316326171"}}, "geometry": {"type": "Point", "coordinates": [-13.950710653378854, 32.77983056080322]}}, {"type": "Feature", "properties": {"norad_id": 44873, "name": "CSG-1", "group": "resource", "lat": 45.76659063855288, "lon": -5.677530059270616, "alt_km": 617.912902727503, "timestamp": "2025-12-10T18:56:59.719708+00:00", "meta": {"OBJECT_NAME": "CSG-1", "OBJECT_ID": "2019-092A", "EPOCH": "2025-12-10T11:52:06.082176", "MEAN_MOTION": 14.82159472, "ECCENTRICITY": 0.0001447, "INCLINATION": 97.881, "RA_OF_ASC_NODE": 165.8525, "ARG_OF_PERICENTER": 84.7148, "MEAN_ANOMALY": 275.423, "EPHEMERIS_TYPE": 0, "CLASSIFICATION_TYPE": "U", "NORAD_CAT_ID": 44873, "ELEMENT_SET_NO": 999, "REV_AT_EPOCH": 32352, "BSTAR": 0.00014065, "MEAN_MOTION_DOT": 1.068e-05, "MEAN_MOTION_DDOT": 0}, "tle": {"line1": "1 44873U 19092A   25344.49451484  .00001068  00000+0  14065-3 0  9997", "line2": "2 44873  97.8810 165.8525 0001447  84.7148 275.4230 14.82159472323522"}}, "geometry": {"type": "Point", "coordinates": [-5.677530059270616, 45.76659063855288]}}, {"type": "Feature", "properties": {"norad_id": 46277, "name": "NEMO-HD", "group": "resource", "lat": -64.02156135550496, "lon": -151.17053622978872, "alt_km": 453.9661625911367, "timestamp": "2025-12-10T18:56:59.719718+00:00", "meta": {"OBJECT_NAME": "NEMO-HD", "OBJECT_ID": "2020-061F", "EPOCH": "2025-12-10T10:05:37.449312", "MEAN_MOTION": 15.40248296, "ECCENTRICITY": 0.0002031, "INCLINATION": 97.221, "RA_OF_ASC_NODE": 43.5477, "ARG_OF_PERICENTER": 59.0087, "MEAN_ANOMALY": 301.1359, "EPHEMERIS_TYPE": 0, "CLASSIFICATION_TYPE": "U", "NORAD_CAT_ID": 46277, "ELEMENT_SET_NO": 999, "REV_AT_EPOCH": 29288, "BSTAR": 0.00038069, "MEAN_MOTION_DOT": 0.00015244, "MEAN_MOTION_DDOT": 0}, "tle": {"line1": "1 46277U 20061F   25344.42057233  .00015244  00000+0  38069-3 0  9993", "line2": "2 46277  97.2210  43.5477 0002031  59.0087 301.1359 15.40248296292886"}}, "geometry": {"type": "Point", "coordinates": [-151.17053622978872, -64.02156135550496]}}, {"type": "Feature", "properties": {"norad_id": 46984, "name": "SENTINEL-6A", "group": "resource", "lat": 60.82395209817784, "lon": -66.42885720249299, "alt_km": 1336.6002898390025, "timestamp": "2025-12-10T18:56:59.719733+00:00", "meta": {"OBJECT_NAME": "SENTINEL-6A", "OBJECT_ID": "2020-086A", "EPOCH": "2025-12-09T23:39:14.637312", "MEAN_MOTION": 12.8093052, "ECCENTRICITY": 0.00077304, "INCLINATION": 66.0391, "RA_OF_ASC_NODE": 168.0287, "ARG_OF_PERICENTER": 269.1798, "MEAN_ANOMALY": 90.8331, "EPHEMERIS_TYPE": 0, "CLASSIFICATION_TYPE": "U", "NORAD_CAT_ID": 46984, "ELEMENT_SET_NO": 999, "REV_AT_EPOCH": 23609, "BSTAR": 6.617319e-05, "MEAN_MOTION_DOT": -4.6e-07, "MEAN_MOTION_DDOT": 0}, "tle": {"line1": "1 46984U 20086A   25343.98558608 -.00000046  00000+0  66173-4 0  9990", "line2": "2 46984  66.0391 168.0287 0007730 269.1798  90.8331 12.80930520236093"}}, "geometry": {"type": "Point", "coordinates": [-66.42885720249299, 60.82395209817784]}}, {"type": "Feature", "properties": {"norad_id": 48079, "name": "GAOFEN-12 02", "group": "resource", "lat": 43.69839659417401, "lon": -28.903026555119048, "alt_km": 622.347022053832, "timestamp": "2025-12-10T18:56:59.719743+00:00", "meta": {"OBJECT_NAME": "GAOFEN-12 02", "OBJECT_ID": "2021-026A", "EPOCH": "2025-12-10T12:15:47.998944", "MEAN_MOTION": 14.80670966, "ECCENTRICITY": 0.000349, "INCLINATION": 97.9851, "RA_OF_ASC_NODE": 338.5282, "ARG_OF_PERICENTER": 105.5278, "MEAN_ANOMALY": 254.6319, "EPHEMERIS_TYPE": 0, "CLASSIFICATION_TYPE": "U", "NORAD_CAT_ID": 48079, "ELEMENT_SET_NO": 999, "REV_AT_EPOCH": 25384, "BSTAR": 0.00012143, "MEAN_MOTION_DOT": 8.8e-06, "MEAN_MOTION_DDOT": 0}, "tle": {"line1": "1 48079U 21026A   25344.51097221  .00000880  00000+0  12143-3 0  9993", "line2": "2 48079  97.9851 338.5282 0003490 105.5278 254.6319 14.80670966253843"}}, "geometry": {"type": "Point", "coordinates": [-28.903026555119048, 43.69839659417401]}}, {"type": "Feature", "properties": {"norad_id": 48268, "name": "PLEIADES NEO 3", "group": "resource", "lat": 73.64135719985006, "lon": -94.5289180842007, "alt_km": 616.0562947804301, "timestamp": "2025-12-10T18:56:59.719756+00:00", "meta": {"OBJECT_NAME": "PLEIADES NEO 3", "OBJECT_ID": "2021-034A", "EPOCH": "2025-12-10T15:14:21.199776", "MEAN_MOTION": 14.81673059, "ECCENTRICITY": 0.0001371, "INCLINATION": 97.895, "RA_OF_ASC_NODE": 57.106, "ARG_OF_PERICENTER": 94.9453, "MEAN_ANOMALY": 265.1917, "EPHEMERIS_TYPE": 0, "CLASSIFICATION_TYPE": "U", "NORAD_CAT_ID": 48268, "ELEMENT_SET_NO": 999, "REV_AT_EPOCH": 24973, "BSTAR": 2.1076e-05, "MEAN_MOTION_DOT": 1.14e-06, "MEAN_MOTION_DDOT": 0}, "tle": {"line1": "1 48268U 21034A   25344.63496759  .00000114  00000+0  21076-4 0  9990", "line2": "2 48268  97.8950  57.1060 0001371  94.9453 265.1917 14.81673059249733"}}, "geometry": {"type": "Point", "coordinates": [-94.5289180842007, 73.64135719985006]}}, {"type": "Feature", "properties": {"norad_id": 49070, "name": "PLEIADES NEO 4", "group": "resource", "lat": -73.60476550395319, "lon": 85.393389065403, "alt_km": 632.2388242812158, "timestamp": "2025-12-10T18:56:59.719766+00:00", "meta": {"OBJECT_NAME": "PLEIADES NEO 4", "OBJECT_ID": "2021-073E", "EPOCH": "2025-12-09T14:07:00.443712", "MEAN_MOTION": 14.81679595, "ECCENTRICITY": 0.0001363, "INCLINATION": 97.8947, "RA_OF_ASC_NODE": 56.0703, "ARG_OF_PERICENTER": 89.0853, "MEAN_ANOMALY": 271.0516, "EPHEMERIS_TYPE": 0, "CLASSIFICATION_TYPE": "U", "NORAD_CAT_ID": 49070, "ELEMENT_SET_NO": 999, "REV_AT_EPOCH": 23329, "BSTAR": 7.8728e-05, "MEAN_MOTION_DOT": 5.68e-06, "MEAN_MOTION_DDOT": 0}, "tle": {"line1": "1 49070U 21073E   25343.58819958  .00000568  00000+0  78728-4 0  9997", "line2": "2 49070  97.8947  56.0703 0001363  89.0853 271.0516 14.81679595233299"}}, "geometry": {"type": "Point", "coordinates": [85.393389065403, -73.60476550395319]}}, {"type": "Feature", "properties": {"norad_id": 49260, "name": "LANDSAT 9", "group": "resource", "lat": 65.29706971511561, "lon": -108.7798419145609, "alt_km": 695.3477105552165, "timestamp": "2025-12-10T18:56:59.719776+00:00", "meta": {"OBJECT_NAME": "LANDSAT 9", "OBJECT_ID": "2021-088A", "EPOCH": "2025-12-10T11:50:22.208640", "MEAN_MOTION": 14.57126771, "ECCENTRICITY": 0.0001107, "INCLINATION": 98.2098, "RA_OF_ASC_NODE": 52.6371, "ARG_OF_PERICENTER": 94.7059, "MEAN_ANOMALY": 265.4266, "EPHEMERIS_TYPE": 0, "CLASSIFICATION_TYPE": "U", "NORAD_CAT_ID": 49260, "ELEMENT_SET_NO": 999, "REV_AT_EPOCH": 22352, "BSTAR": 0.00017196, "MEAN_MOTION_DOT": 7.3e-06, "MEAN_MOTION_DDOT": 0}, "tle": {"line1": "1 49260U 21088A   25344.49331260  .00000730  00000+0  17196-3 0  9992", "line2": "2 49260  98.2098  52.6371 0001107  94.7059 265.4266 14.57126771223522"}}, "geometry": {"type": "Point", "coordinates": [-108.7798419145609, 65.29706971511561]}}]}